ORBCOMM-X               
1 21576U 91050C   25203.45689031  .00000251  00000+0  87245-4 0  9991
2 21576  98.3419 269.3355 0004876  84.2112 275.9634 14.43283079787204
ORBCOMM FM01            
1 23545U 95017A   25203.57368860  .00005395  00000+0  56178-3 0  9997
2 23545  69.9643 345.8734 0005629 262.5003  97.5512 14.90368019617781
ORBCOMM FM02            
1 23546U 95017B   25203.56235097  .00005863  00000+0  59595-3 0  9998
2 23546  69.9654   5.1763 0006937 260.8708  99.1663 14.91282742617434
ORBCOMM FM08            
1 25112U 97084A   25203.41955993  .00001040  00000+0  33032-3 0  9994
2 25112  45.0125 198.7236 0004776  44.2929 315.8304 14.45885198446472
ORBCOMM FM10            
1 25113U 97084B   25203.40585419  .00000889  00000+0  28961-3 0  9991
2 25113  45.0137 201.2314 0004842   0.3618 359.7236 14.45669680621613
ORBCOMM FM11            
1 25114U 97084C   25203.41650413  .00000836  00000+0  27617-3 0  9999
2 25114  45.0123 201.8772 0005458   6.1676 353.9242 14.45419150446573
ORBCOMM FM12            
1 25115U 97084D   25203.37847967  .00000927  00000+0  30154-3 0  9998
2 25115  45.0130 201.8061 0004759 357.8022   2.2807 14.45440480446365
